{
  "type": "FeatureCollection",
  "features": [
    {
      "type": "Feature",
      "properties": {
        "norad_id": 36036,
        "name": "SMOS",
        "group": "resource",
        "lat": -27.760311488455617,
        "lon": -12.730712493131637,
        "alt_km": 765.5720851418318,
        "timestamp": "2025-12-12T16:50:32.804287+00:00",
        "meta_object_name": "SMOS",
        "meta_object_id": "2009-059A",
        "meta_epoch": "2025-12-12T05:52:18.862464",
        "meta_mean_motion": 14.39740569,
        "meta_eccentricity": 0.0001103,
        "meta_inclination": 98.438,
        "meta_ra_of_asc_node": 171.3004,
        "meta_arg_of_pericenter": 84.4023,
        "meta_mean_anomaly": 275.7291,
        "meta_ephemeris_type": 0,
        "meta_classification_type": "U",
        "meta_norad_cat_id": 36036,
        "meta_element_set_no": 999,
        "meta_rev_at_epoch": 84655,
        "meta_bstar": 0.00020761174,
        "meta_mean_motion_dot": 6.07e-06,
        "meta_mean_motion_ddot": 0,
        "tle_line1": "1 36036U 09059A   25346.24466276  .00000607  00000+0  20761-3 0  9999",
        "tle_line2": "2 36036  98.4380 171.3004 0001103  84.4023 275.7291 14.39740569846553"
      },
      "geometry": {
        "type": "Point",
        "coordinates": [
          -12.730712493131637,
          -27.760311488455617
        ]
      }
    },
    {
      "type": "Feature",
      "properties": {
        "norad_id": 36110,
        "name": "YAOGAN-7",
        "group": "resource",
        "lat": 27.59445074128392,
        "lon": -135.77259375982393,
        "alt_km": 639.9889390814897,
        "timestamp": "2025-12-12T16:50:32.804297+00:00",
        "meta_object_name": "YAOGAN-7",
        "meta_object_id": "2009-069A",
        "meta_epoch": "2025-12-12T06:57:57.741696",
        "meta_mean_motion": 14.77731719,
        "meta_eccentricity": 0.0023382,
        "meta_inclination": 98.0301,
        "meta_ra_of_asc_node": 228.0489,
        "meta_arg_of_pericenter": 282.8257,
        "meta_mean_anomaly": 77.0341,
        "meta_ephemeris_type": 0,
        "meta_classification_type": "U",
        "meta_norad_cat_id": 36110,
        "meta_element_set_no": 999,
        "meta_rev_at_epoch": 86202,
        "meta_bstar": 0.00016008454,
        "meta_mean_motion_dot": 1.099e-05,
        "meta_mean_motion_ddot": 0,
        "tle_line1": "1 36110U 09069A   25346.29025164  .00001099  00000+0  16008-3 0  9990",
        "tle_line2": "2 36110  98.0301 228.0489 0023382 282.8257  77.0341 14.77731719862026"
      },
      "geometry": {
        "type": "Point",
        "coordinates": [
          -135.77259375982393,
          27.59445074128392
        ]
      }
    },
    {
      "type": "Feature",
      "properties": {
        "norad_id": 36605,
        "name": "TANDEM-X",
        "group": "resource",
        "lat": -82.2427187168763,
        "lon": 98.34865534070241,
        "alt_km": 517.0022390936983,
        "timestamp": "2025-12-12T16:50:32.804308+00:00",
        "meta_object_name": "TANDEM-X",
        "meta_object_id": "2010-030A",
        "meta_epoch": "2025-12-11T11:12:43.510464",
        "meta_mean_motion": 15.19157824,
        "meta_eccentricity": 0.00018635,
        "meta_inclination": 97.4452,
        "meta_ra_of_asc_node": 350.866,
        "meta_arg_of_pericenter": 82.9447,
        "meta_mean_anomaly": 277.1999,
        "meta_ephemeris_type": 0,
        "meta_classification_type": "U",
        "meta_norad_cat_id": 36605,
        "meta_element_set_no": 999,
        "meta_rev_at_epoch": 85814,
        "meta_bstar": 0.00012772132,
        "meta_mean_motion_dot": 2.617e-05,
        "meta_mean_motion_ddot": 0,
        "tle_line1": "1 36605U 10030A   25345.46717026  .00002617  00000+0  12772-3 0  9993",
        "tle_line2": "2 36605  97.4452 350.8660 0001863  82.9447 277.1999 15.19157824858146"
      },
      "geometry": {
        "type": "Point",
        "coordinates": [
          98.34865534070241,
          -82.2427187168763
        ]
      }
    },
    {
      "type": "Feature",
      "properties": {
        "norad_id": 36795,
        "name": "CARTOSAT-2B",
        "group": "resource",
        "lat": -44.66257729373427,
        "lon": 43.504119290035405,
        "alt_km": 644.9008114000771,
        "timestamp": "2025-12-12T16:50:32.804317+00:00",
        "meta_object_name": "CARTOSAT-2B",
        "meta_object_id": "2010-035A",
        "meta_epoch": "2025-12-12T07:18:08.927136",
        "meta_mean_motion": 14.78725198,
        "meta_eccentricity": 0.00130875,
        "meta_inclination": 97.7853,
        "meta_ra_of_asc_node": 35.3487,
        "meta_arg_of_pericenter": 77.9558,
        "meta_mean_anomaly": 282.312,
        "meta_ephemeris_type": 0,
        "meta_classification_type": "U",
        "meta_norad_cat_id": 36795,
        "meta_element_set_no": 999,
        "meta_rev_at_epoch": 83223,
        "meta_bstar": 0.00041893665,
        "meta_mean_motion_dot": 3.029e-05,
        "meta_mean_motion_ddot": 0,
        "tle_line1": "1 36795U 10035A   25346.30426999  .00003029  00000+0  41894-3 0  9993",
        "tle_line2": "2 36795  97.7853  35.3487 0013087  77.9558 282.3120 14.78725198832239"
      },
      "geometry": {
        "type": "Point",
        "coordinates": [
          43.504119290035405,
          -44.66257729373427
        ]
      }
    },
    {
      "type": "Feature",
      "properties": {
        "norad_id": 36834,
        "name": "YAOGAN-10",
        "group": "resource",
        "lat": 33.9149871554284,
        "lon": 1.1556425381774067,
        "alt_km": 611.9651576698898,
        "timestamp": "2025-12-12T16:50:32.804343+00:00",
        "meta_object_name": "YAOGAN-10",
        "meta_object_id": "2010-038A",
        "meta_epoch": "2025-12-12T08:51:44.357760",
        "meta_mean_motion": 14.84609139,
        "meta_eccentricity": 0.00015466,
        "meta_inclination": 97.9148,
        "meta_ra_of_asc_node": 6.1927,
        "meta_arg_of_pericenter": 84.2719,
        "meta_mean_anomaly": 334.1023,
        "meta_ephemeris_type": 0,
        "meta_classification_type": "U",
        "meta_norad_cat_id": 36834,
        "meta_element_set_no": 999,
        "meta_rev_at_epoch": 82948,
        "meta_bstar": 0.00054887661,
        "meta_mean_motion_dot": 4.585e-05,
        "meta_mean_motion_ddot": 0,
        "tle_line1": "1 36834U 10038A   25346.36926340  .00004585  00000+0  54888-3 0  9996",
        "tle_line2": "2 36834  97.9148   6.1927 0001546  84.2719 334.1023 14.84609139829488"
      },
      "geometry": {
        "type": "Point",
        "coordinates": [
          1.1556425381774067,
          33.9149871554284
        ]
      }
    },
    {
      "type": "Feature",
      "properties": {
        "norad_id": 37216,
        "name": "COSMO-SKYMED 4",
        "group": "resource",
        "lat": -41.718639496243355,
        "lon": 175.1191750735366,
        "alt_km": 629.5594803597523,
        "timestamp": "2025-12-12T16:50:32.804354+00:00",
        "meta_object_name": "COSMO-SKYMED 4",
        "meta_object_id": "2010-060A",
        "meta_epoch": "2025-12-12T07:18:39.935232",
        "meta_mean_motion": 14.82166989,
        "meta_eccentricity": 0.00013827,
        "meta_inclination": 97.8809,
        "meta_ra_of_asc_node": 167.6344,
        "meta_arg_of_pericenter": 77.1687,
        "meta_mean_anomaly": 282.9681,
        "meta_ephemeris_type": 0,
        "meta_classification_type": "U",
        "meta_norad_cat_id": 37216,
        "meta_element_set_no": 999,
        "meta_rev_at_epoch": 81688,
        "meta_bstar": 7.7063558e-05,
        "meta_mean_motion_dot": 5.62e-06,
        "meta_mean_motion_ddot": 0,
        "tle_line1": "1 37216U 10060A   25346.30462888  .00000562  00000+0  77064-4 0  9995",
        "tle_line2": "2 37216  97.8809 167.6344 0001382  77.1687 282.9681 14.82166989816884"
      },
      "geometry": {
        "type": "Point",
        "coordinates": [
          175.1191750735366,
          -41.718639496243355
        ]
      }
    },
    {
      "type": "Feature",
      "properties": {
        "norad_id": 37387,
        "name": "RESOURCESAT-2",
        "group": "resource",
        "lat": -67.31403905839802,
        "lon": 71.9724215079501,
        "alt_km": 828.887054466999,
        "timestamp": "2025-12-12T16:50:32.804364+00:00",
        "meta_object_name": "RESOURCESAT-2",
        "meta_object_id": "2011-015A",
        "meta_epoch": "2025-12-12T07:01:52.756608",
        "meta_mean_motion": 14.21597005,
        "meta_eccentricity": 0.00064616,
        "meta_inclination": 98.7878,
        "meta_ra_of_asc_node": 49.8468,
        "meta_arg_of_pericenter": 43.8405,
        "meta_mean_anomaly": 316.3284,
        "meta_ephemeris_type": 0,
        "meta_classification_type": "U",
        "meta_norad_cat_id": 37387,
        "meta_element_set_no": 999,
        "meta_rev_at_epoch": 75962,
        "meta_bstar": 0.00013126035,
        "meta_mean_motion_dot": 2.43e-06,
        "meta_mean_motion_ddot": 0,
        "tle_line1": "1 37387U 11015A   25346.29297172  .00000243  00000+0  13126-3 0  9999",
        "tle_line2": "2 37387  98.7878  49.8468 0006461  43.8405 316.3284 14.21597005759627"
      },
      "geometry": {
        "type": "Point",
        "coordinates": [
          71.9724215079501,
          -67.31403905839802
        ]
      }
    }
  ]
}